KUIPER-00089            
1 64834U 25151U   25220.76540351 -.00015340  00000+0 -42909-3 0  9992
2 64834  51.8781 174.3596 0005390 211.4159 148.6506 15.35392744  3604
KUIPER-00090            
1 64835U 25151V   25220.57340981  .00018554  00000+0  54355-3 0  9995
2 64835  51.8779 175.3191 0005493 241.9142 118.1289 15.35243646  3570
KUIPER-00091            
1 64836U 25151W   25220.49824334  .00023321  00000+0  66665-3 0  9991
2 64836  51.8773 175.5652 0005326 213.1109 146.9544 15.35864069  3568
KUIPER-00092            
1 64837U 25151X   25220.89156275  .00032597  00000+0  92799-3 0  9990
2 64837  51.8768 173.6990 0005264 227.1346 132.9198 15.35809292  4834
KUIPER-00093            
1 64838U 25151Y   25220.56956506  .00014047  00000+0  41037-3 0  9999
2 64838  51.8784 175.2977 0005070 229.5477 130.5067 15.35556605  3578
KUIPER-00094            
1 64839U 25151Z   25220.37048154  .00022652  00000+0  64989-3 0  9992
2 64839  51.8771 176.2078 0004864 225.2583 134.8008 15.35769606  3545
